LEMUR-1                 
1 40044U 14033AL  26169.64134095  .00001619  00000+0  19092-3 0  9999
2 40044  97.7879 319.4140 0049641  73.9921 286.6753 14.85251522645689
LEMUR-2-GREENBERG       
1 42837U 17042N   26169.45925088  .00012937  00000+0  42899-3 0  9999
2 42837  97.3821 350.0774 0008395   9.3280 350.8115 15.31359663488587
LEMUR-2-ANDIS           
1 42838U 17042P   26169.48562927  .00016141  00000+0  47856-3 0  9991
2 42838  97.3677 350.2921 0008044   7.6302 352.5062 15.34885216488659
LEMUR-2-MONSON          
1 42839U 17042Q   26169.47078065  .00010699  00000+0  39358-3 0  9996
2 42839  97.4078 350.0593 0006064   1.3615 358.7640 15.28037934488364
LEMUR-2-FURIAUS         
1 42840U 17042R   26169.45393875  .00013947  00000+0  47784-3 0  9996
2 42840  97.3770 348.0240 0008108  65.3345 294.8739 15.30285769488409
LEMUR-2-PETERG          
1 42841U 17042S   26169.47058771  .00015959  00000+0  48822-3 0  9991
2 42841  97.3990 354.5021 0003084 351.8183   8.3009 15.33923288488635
LEMUR-2-DEMBITZ         
1 42842U 17042T   26169.47378497  .00012373  00000+0  42389-3 0  9991
2 42842  97.3825 351.0690 0006625  24.6054 335.5501 15.30325731488541
LEMUR-2-ZACHARY         
1 42845U 17042W   26169.80364927  .00036903  00000+0  64927-3 0  9991
2 42845  97.3593   1.4742 0002775  26.6140 333.5254 15.50379625489457
LEMUR-2-AMANDA-SVANTE   
1 48269U 21034B   26169.72703326  .00024316  00000+0  73152-3 0  9999
2 48269  97.5757 248.0531 0002580 201.9816 158.1316 15.34371119281298
LEMUR-2-SPECIAL-K       
1 48273U 21034F   26169.49244251  .00126097  00000+0  12800-2 0  9996
2 48273  97.5651 256.4445 0004487 228.2243 131.8633 15.64790945281898
LEMUR-2-EMBRIONOVIS     
1 56970U 23084AQ  26169.82871988  .00010078  00000+0  27534-3 0  9998
2 56970  97.6299 314.0906 0007654 313.6507  46.4101 15.37581316167933
LEMUR-2-DEVERILL-M-T    
1 57391U 23100F   26169.85941537  .00020370  00000+0  51540-3 0  9996
2 57391  99.4465 209.1002 0006140  45.0555 315.1182 15.39820100161506
LEMUR-2-BASS            
1 58259U 23174D   26169.76657280  .00013431  00000+0  30489-3 0  9999
2 58259  97.3844 254.5009 0007808 157.3216 202.8378 15.43137052145606
LEMUR-2-JK0903EM1407    
1 58336U 23174CJ  26169.75593422  .00020991  00000+0  35309-3 0  9996
2 58336  97.3921 260.2698 0005730 116.3849 243.7992 15.51747587145970
LEMUR-2-MJR092620       
1 58340U 23174CN  26169.77805126  .00014533  00000+0  31054-3 0  9998
2 58340  97.3974 259.8362 0007101 113.0794 247.1204 15.44922391145897
LEMUR-2-NIMBUS2000      
1 58899U 24022A   26169.83317300  .00013139  00000+0  33027-3 0  9992
2 58899  97.4104  19.8545 0010355 110.8735 249.3621 15.40039228132521
LEMUR-2-VALHALLA        
1 58900U 24022B   26169.37481145  .00012409  00000+0  31547-3 0  9997
2 58900  97.4102  19.3805 0010880 108.4761 251.7668 15.39701639132451
LEMUR-2-CAEL            
1 58903U 24022E   26169.83817559  .00013045  00000+0  31766-3 0  9993
2 58903  97.4084  20.7882 0009247  92.5740 267.6565 15.41018053132590
LEMUR-2-JOHNNYTRUONG    
1 59146U 24043BA  26169.68901821  .00031698  00000+0  38447-3 0  9992
2 59146  97.5383 321.4848 0004858 171.6934 188.4404 15.60561028128271
LEMUR-2-TOMATOKECHUP    
1 60471U 24149D   26169.67080127  .00008793  00000+0  25267-3 0  9994
2 60471  97.3799 251.7214 0001604 173.2707 186.8559 15.36059233102398
LEMUR-2-STELLA          
1 60533U 24149BT  26169.53788786  .00008277  00000+0  48796-3 0  9993
2 60533  97.6734 251.9987 0001608  96.2198 263.9215 15.11833501100700
LEMUR-2-MARHISYAM       
1 60536U 24149BW  26169.84974916  .00008852  00000+0  52944-3 0  9991
2 60536  97.6878 252.7624 0003239 115.4862 244.6702 15.11287801100739
LEMUR-2-AHMED-ASRAR     
1 60576U 24149DN  26169.22082141  .00008634  00000+0  49630-3 0  9993
2 60576  97.7006 254.2272 0001800  42.4365 317.7005 15.12732689100729
LEMUR-2-LLOYD           
1 60577U 24149DP  26169.76607582  .00008036  00000+0  50838-3 0  9993
2 60577  97.6747 250.8956 0004956 135.7403 224.4222 15.09265027100634
LEMUR-2-SQUIRRELCOMM    
1 60578U 24149DQ  26169.78244171  .00004952  00000+0  33333-3 0  9991
2 60578  97.6704 250.6884 0006187  56.4359 303.7459 15.07163327100645
LEMUR-2-SIERRINI        
1 60579U 24149DR  26169.74117316  .00008151  00000+0  49200-3 0  9993
2 60579  97.6839 252.3402 0005990 160.0977 200.0487 15.10973213100691
LEMUR-2-WILSON          
1 62694U 25009CP  26169.76809376  .00002138  00000+0  19983-3 0  9999
2 62694  97.7029 248.2049 0004148  53.7610 306.3994 14.95172071 77590
LEMUR-2-STAR-FOX        
1 62696U 25009CR  26169.75770091  .00006027  00000+0  45802-3 0  9991
2 62696  97.6954 251.3549 0003988 107.9381 252.2278 15.02523092 77794
LEMUR-2-ARIANNA         
1 62699U 25009CU  26169.75605962  .00006116  00000+0  46486-3 0  9996
2 62699  97.6893 251.1267 0004368 113.2828 246.8857 15.02504924 77798
LEMUR-2-ALISIA          
1 62706U 25009DB  26169.73367228  .00005655  00000+0  42713-3 0  9999
2 62706  97.6945 251.8932 0002165 190.8536 169.2642 15.02785681100395
